{
    "links": {
        "self": "http://www.neowsapp.com/rest/v1/neo/3893951?api_key=iIulBulltgU6a56xZRHN4H3l9WmuAYTsLGpBGhQ2"
    },
    "id": "3893951",
    "neo_reference_id": "3893951",
    "name": "(2019 XB1)",
    "designation": "2019 XB1",
    "nasa_jpl_url": "http://ssd.jpl.nasa.gov/sbdb.cgi?sstr=3893951",
    "absolute_magnitude_h": 20.3,
    "estimated_diameter": {
        "kilometers": {
            "estimated_diameter_min": 0.2315021222,
            "estimated_diameter_max": 0.5176544822
        },
        "meters": {
            "estimated_diameter_min": 231.5021222103,
            "estimated_diameter_max": 517.6544821978
        },
        "miles": {
            "estimated_diameter_min": 0.1438487052,
            "estimated_diameter_max": 0.3216554833
        },
        "feet": {
            "estimated_diameter_min": 759.5214226325,
            "estimated_diameter_max": 1698.3415313737
        }
    },
    "is_potentially_hazardous_asteroid": false,
    "close_approach_data": [
        {
            "close_approach_date": "2019-11-11",
            "close_approach_date_full": "2019-Nov-11 11:54",
            "epoch_date_close_approach": 1573473240000,
            "relative_velocity": {
                "kilometers_per_second": "17.5147094366",
                "kilometers_per_hour": "63052.9539717596",
                "miles_per_hour": "39178.6535387303"
            },
            "miss_distance": {
                "astronomical": "0.1793998373",
                "lunar": "69.7865367097",
                "kilometers": "26837833.538426551",
                "miles": "16676256.4724903638"
            },
            "orbiting_body": "Earth"
        }
    ],
    "orbital_data": {
        "orbit_id": "3",
        "orbit_determination_date": "2019-12-28 08:29:58",
        "first_observation_date": "2019-12-02",
        "last_observation_date": "2019-12-24",
        "data_arc_in_days": 22,
        "observations_used": 56,
        "orbit_uncertainty": "7",
        "minimum_orbit_intersection": ".0624801",
        "jupiter_tisserand_invariant": "3.574",
        "epoch_osculation": "2459000.5",
        "eccentricity": ".4830022493015959",
        "semi_major_axis": "1.968695076932647",
        "inclination": "30.23517781698451",
        "ascending_node_longitude": "58.5372843032287",
        "orbital_period": "1008.941787771845",
        "perihelion_distance": "1.0178109265852",
        "perihelion_argument": "333.8518510185662",
        "aphelion_distance": "2.919579227280093",
        "perihelion_time": "2458776.685807915410",
        "mean_anomaly": "79.8590266821941",
        "mean_motion": ".3568094853074001",
        "equinox": "J2000",
        "orbit_class": {
            "orbit_class_type": "AMO",
            "orbit_class_description": "Near-Earth asteroid orbits similar to that of 1221 Amor",
            "orbit_class_range": "1.017 AU < q (perihelion) < 1.3 AU"
        }
    },
    "is_sentry_object": false
}